OBJECT_NAME,OBJECT_ID,EPOCH,MEAN_MOTION,ECCENTRICITY,INCLINATION,RA_OF_ASC_NODE,ARG_OF_PERICENTER,MEAN_ANOMALY,EPHEMERIS_TYPE,CLASSIFICATION_TYPE,NORAD_CAT_ID,ELEMENT_SET_NO,REV_AT_EPOCH,BSTAR,MEAN_MOTION_DOT,MEAN_MOTION_DDOT
GSAT0225 (GALILEO 29),2024-079A,2026-07-08T05:56:26.013120,1.70473736,.00007776,55.1311,100.4922,311.6524,239.2330,0,U,59598,999,1367,0,-.9E-7,0
GSAT0227 (GALILEO 30),2024-079C,2026-07-06T22:43:23.740320,1.70473885,.00026347,55.1260,100.5264,63.1115,296.9336,0,U,59600,999,1370,0,-.3E-7,0
GSAT0232 (GALILEO 32),2024-167A,2026-07-08T11:10:26.486112,1.70474015,.00064978,55.1809,220.7302,230.6295,197.1425,0,U,61182,999,1124,0,.85E-6,0
GSAT0226 (GALILEO 31),2024-167B,2026-07-08T05:00:06.159168,1.70473990,.00031494,55.1792,220.7442,233.8539,127.4158,0,U,61183,999,1121,0,.84E-6,0
BEIDOU-3 M25 (C47),2024-168B,2026-07-08T09:46:40.864224,1.86229964,.00032862,54.4534,301.5057,292.6840,72.3605,0,U,61186,999,1218,0,-.66E-6,0
BEIDOU-3 M27 (C49),2024-168C,2026-07-08T06:23:17.107008,1.86230038,.00010197,54.4489,301.4934,48.3070,357.0720,0,U,61187,999,965,0,-.65E-6,0
GPS BIII-7  (PRN 01),2024-242A,2026-07-08T08:14:53.018016,2.00571888,.00177115,54.8398,333.3248,4.0687,41.6116,0,U,62339,999,1168,0,-.74E-6,0
QZS-6 (QZSS/PRN 200),2025-023A,2026-07-08T14:07:44.459328,1.00269124,.00018663,0.0284,302.1596,184.4216,102.4005,0,U,62876,999,516,0,-.218E-5,0
COSMOS 2584 (704K),2025-042A,2026-07-04T12:04:02.572320,2.13103855,.00060594,65.0947,72.2135,222.1818,137.8396,0,U,63130,999,1041,0,-.1E-6,0
GPS BIII-8  (PRN 21),2025-116A,2026-07-07T06:45:38.793600,2.00574400,.00083492,55.2499,30.3230,339.7972,202.1311,0,U,64202,999,827,0,-.56E-6,0
COSMOS 2596 (708K),2025-206B,2026-07-07T14:29:48.495264,2.13100766,.00111323,64.6217,314.2756,308.3716,26.9282,0,U,65590,999,634,0,-.51E-6,0
GSAT0233 (GALILEO 33),2025-302A,2026-07-07T03:26:14.543232,1.70473948,.00008687,54.3464,101.5632,177.6820,346.3686,0,U,67160,999,346,0,-.3E-7,0
GSAT0234 (GALILEO 34),2025-302C,2026-07-07T11:14:42.495360,1.70474014,.00021617,54.3483,101.5529,322.9708,220.8395,0,U,67162,999,352,0,-.4E-7,0
GPS BIII-9  (PRN 20),2026-017A,2026-07-08T03:17:08.954880,2.00570650,.00216213,55.1013,87.9145,259.6695,100.1224,0,U,67588,999,43203,0,-.26E-6,0
GPS BIII-10 (PRN 13),2026-087A,2026-07-08T08:38:38.586912,2.00571972,.00205396,54.9624,206.9506,106.6860,259.9662,0,U,68791,999,126,0,.111E-5,0
